{"type": "FeatureCollection", "features": [{"type": "Feature", "properties": {"norad_id": 24876, "name": "GPS BIIR-2  (PRN 13)", "group": "gnss", "lat": 10.117401967540372, "lon": -81.18637407523221, "alt_km": 20270.124063590963, "timestamp": "2025-12-15T10:55:21.383705+00:00", "meta": {"OBJECT_NAME": "GPS BIIR-2  (PRN 13)", "OBJECT_ID": "1997-035A", "EPOCH": "2025-12-14T05:28:55.073280", "MEAN_MOTION": 2.00563668, "ECCENTRICITY": 0.0096778, "INCLINATION": 55.8959, "RA_OF_ASC_NODE": 105.8106, "ARG_OF_PERICENTER": 56.9864, "MEAN_ANOMALY": 303.9153, "EPHEMERIS_TYPE": 0, "CLASSIFICATION_TYPE": "U", "NORAD_CAT_ID": 24876, "ELEMENT_SET_NO": 999, "REV_AT_EPOCH": 20824, "BSTAR": 0, "MEAN_MOTION_DOT": -5e-08, "MEAN_MOTION_DDOT": 0}, "tle": {"line1": "1 24876U 97035A   25348.22841520 -.00000005  00000+0  00000+0 0  9991", "line2": "2 24876  55.8959 105.8106 0096778  56.9864 303.9153  2.00563668208242"}}, "geometry": {"type": "Point", "coordinates": [-81.18637407523221, 10.117401967540372]}}, {"type": "Feature", "properties": {"norad_id": 26360, "name": "GPS BIIR-4  (PRN 20)", "group": "gnss", "lat": -53.49191618506091, "lon": -82.45106910098676, "alt_km": 20088.367260488863, "timestamp": "2025-12-15T10:55:21.383752+00:00", "meta": {"OBJECT_NAME": "GPS BIIR-4  (PRN 20)", "OBJECT_ID": "2000-025A", "EPOCH": "2025-12-14T20:00:34.863840", "MEAN_MOTION": 2.00567621, "ECCENTRICITY": 0.00388872, "INCLINATION": 55.0464, "RA_OF_ASC_NODE": 26.7531, "ARG_OF_PERICENTER": 242.1971, "MEAN_ANOMALY": 287.7489, "EPHEMERIS_TYPE": 0, "CLASSIFICATION_TYPE": "U", "NORAD_CAT_ID": 26360, "ELEMENT_SET_NO": 999, "REV_AT_EPOCH": 18757, "BSTAR": 0, "MEAN_MOTION_DOT": -9.4e-07, "MEAN_MOTION_DDOT": 0}, "tle": {"line1": "1 26360U 00025A   25348.83373685 -.00000094  00000+0  00000+0 0  9991", "line2": "2 26360  55.0464  26.7531 0038887 242.1971 287.7489  2.00567621187579"}}, "geometry": {"type": "Point", "coordinates": [-82.45106910098676, -53.49191618506091]}}, {"type": "Feature", "properties": {"norad_id": 26407, "name": "GPS BIIR-5  (PRN 22)", "group": "gnss", "lat": 53.95566158015463, "lon": -32.541650129994494, "alt_km": 20481.872122037417, "timestamp": "2025-12-15T10:55:21.383772+00:00", "meta": {"OBJECT_NAME": "GPS BIIR-5  (PRN 22)", "OBJECT_ID": "2000-040A", "EPOCH": "2025-12-14T13:17:49.888896", "MEAN_MOTION": 2.00568039, "ECCENTRICITY": 0.01259105, "INCLINATION": 54.8904, "RA_OF_ASC_NODE": 222.4968, "ARG_OF_PERICENTER": 301.8439, "MEAN_ANOMALY": 225.766, "EPHEMERIS_TYPE": 0, "CLASSIFICATION_TYPE": "U", "NORAD_CAT_ID": 26407, "ELEMENT_SET_NO": 999, "REV_AT_EPOCH": 18624, "BSTAR": 0, "MEAN_MOTION_DOT": 3.9e-07, "MEAN_MOTION_DDOT": 0}, "tle": {"line1": "1 26407U 00040A   25348.55404964  .00000039  00000+0  00000+0 0  9992", "line2": "2 26407  54.8904 222.4968 0125910 301.8439 225.7660  2.00568039186242"}}, "geometry": {"type": "Point", "coordinates": [-32.541650129994494, 53.95566158015463]}}, {"type": "Feature", "properties": {"norad_id": 27663, "name": "GPS BIIR-8  (PRN 16)", "group": "gnss", "lat": -41.48622248140934, "lon": 80.65879476271355, "alt_km": 20578.38761062798, "timestamp": "2025-12-15T10:55:21.383787+00:00", "meta": {"OBJECT_NAME": "GPS BIIR-8  (PRN 16)", "OBJECT_ID": "2003-005A", "EPOCH": "2025-12-14T15:32:18.245760", "MEAN_MOTION": 2.00570858, "ECCENTRICITY": 0.01475389, "INCLINATION": 54.9229, "RA_OF_ASC_NODE": 222.3024, "ARG_OF_PERICENTER": 51.8264, "MEAN_ANOMALY": 319.116, "EPHEMERIS_TYPE": 0, "CLASSIFICATION_TYPE": "U", "NORAD_CAT_ID": 27663, "ELEMENT_SET_NO": 999, "REV_AT_EPOCH": 16761, "BSTAR": 0, "MEAN_MOTION_DOT": 4.1e-07, "MEAN_MOTION_DDOT": 0}, "tle": {"line1": "1 27663U 03005A   25348.64743340  .00000041  00000+0  00000+0 0  9998", "line2": "2 27663  54.9229 222.3024 0147538  51.8264 319.1160  2.00570858167613"}}, "geometry": {"type": "Point", "coordinates": [80.65879476271355, -41.48622248140934]}}, {"type": "Feature", "properties": {"norad_id": 28190, "name": "GPS BIIR-11 (PRN 19)", "group": "gnss", "lat": 25.651830375356074, "lon": -57.2587629059084, "alt_km": 20384.074382700746, "timestamp": "2025-12-15T10:55:21.383801+00:00", "meta": {"OBJECT_NAME": "GPS BIIR-11 (PRN 19)", "OBJECT_ID": "2004-009A", "EPOCH": "2025-12-14T15:49:47.343936", "MEAN_MOTION": 2.00560762, "ECCENTRICITY": 0.01083648, "INCLINATION": 54.9839, "RA_OF_ASC_NODE": 283.1415, "ARG_OF_PERICENTER": 167.6892, "MEAN_ANOMALY": 10.6801, "EPHEMERIS_TYPE": 0, "CLASSIFICATION_TYPE": "U", "NORAD_CAT_ID": 28190, "ELEMENT_SET_NO": 999, "REV_AT_EPOCH": 15924, "BSTAR": 0, "MEAN_MOTION_DOT": -7.9e-07, "MEAN_MOTION_DDOT": 0}, "tle": {"line1": "1 28190U 04009A   25348.65957574 -.00000079  00000+0  00000+0 0  9998", "line2": "2 28190  54.9839 283.1415 0108364 167.6892  10.6801  2.00560762159240"}}, "geometry": {"type": "Point", "coordinates": [-57.2587629059084, 25.651830375356074]}}, {"type": "Feature", "properties": {"norad_id": 28474, "name": "GPS BIIR-13 (PRN 02)", "group": "gnss", "lat": 55.01268039157835, "lon": 69.48685053518756, "alt_km": 20544.170756924992, "timestamp": "2025-12-15T10:55:21.383815+00:00", "meta": {"OBJECT_NAME": "GPS BIIR-13 (PRN 02)", "OBJECT_ID": "2004-045A", "EPOCH": "2025-12-12T12:01:27.782400", "MEAN_MOTION": 2.00569519, "ECCENTRICITY": 0.0170757, "INCLINATION": 55.2408, "RA_OF_ASC_NODE": 332.4152, "ARG_OF_PERICENTER": 309.2412, "MEAN_ANOMALY": 170.6572, "EPHEMERIS_TYPE": 0, "CLASSIFICATION_TYPE": "U", "NORAD_CAT_ID": 28474, "ELEMENT_SET_NO": 999, "REV_AT_EPOCH": 15468, "BSTAR": 0, "MEAN_MOTION_DOT": -8.8e-07, "MEAN_MOTION_DDOT": 0}, "tle": {"line1": "1 28474U 04045A   25346.50101600 -.00000088  00000+0  00000+0 0  9996", "line2": "2 28474  55.2408 332.4152 0170757 309.2412 170.6572  2.00569519154688"}}, "geometry": {"type": "Point", "coordinates": [69.48685053518756, 55.01268039157835]}}, {"type": "Feature", "properties": {"norad_id": 28874, "name": "GPS BIIRM-1 (PRN 17)", "group": "gnss", "lat": 41.0580475277655, "lon": -41.91835356528229, "alt_km": 20345.219460964436, "timestamp": "2025-12-15T10:55:21.383828+00:00", "meta": {"OBJECT_NAME": "GPS BIIRM-1 (PRN 17)", "OBJECT_ID": "2005-038A", "EPOCH": "2025-12-14T21:27:36.248256", "MEAN_MOTION": 2.00578318, "ECCENTRICITY": 0.01315823, "INCLINATION": 55.03, "RA_OF_ASC_NODE": 280.6141, "ARG_OF_PERICENTER": 293.5769, "MEAN_ANOMALY": 73.3073, "EPHEMERIS_TYPE": 0, "CLASSIFICATION_TYPE": "U", "NORAD_CAT_ID": 28874, "ELEMENT_SET_NO": 999, "REV_AT_EPOCH": 14814, "BSTAR": 0, "MEAN_MOTION_DOT": -7.5e-07, "MEAN_MOTION_DDOT": 0}, "tle": {"line1": "1 28874U 05038A   25348.89416954 -.00000075  00000+0  00000+0 0  9994", "line2": "2 28874  55.0300 280.6141 0131582 293.5769  73.3073  2.00578318148142"}}, "geometry": {"type": "Point", "coordinates": [-41.91835356528229, 41.0580475277655]}}, {"type": "Feature", "properties": {"norad_id": 28899, "name": "INMARSAT 4-F2 (SOUTHPAN/PRN 122)", "group": "gnss", "lat": -0.9916461955354624, "lon": 31.76112558769635, "alt_km": 35792.69802872411, "timestamp": "2025-12-15T10:55:21.383841+00:00", "meta": {"OBJECT_NAME": "INMARSAT 4-F2 (SOUTHPAN/PRN 122)", "OBJECT_ID": "2005-044A", "EPOCH": "2025-12-14T22:39:45.580320", "MEAN_MOTION": 1.00271557, "ECCENTRICITY": 0.00026623, "INCLINATION": 4.8554, "RA_OF_ASC_NODE": 43.6975, "ARG_OF_PERICENTER": 223.7202, "MEAN_ANOMALY": 299.8824, "EPHEMERIS_TYPE": 0, "CLASSIFICATION_TYPE": "U", "NORAD_CAT_ID": 28899, "ELEMENT_SET_NO": 999, "REV_AT_EPOCH": 7367, "BSTAR": 0, "MEAN_MOTION_DOT": -2.44e-06, "MEAN_MOTION_DDOT": 0}, "tle": {"line1": "1 28899U 05044A   25348.94427755 -.00000244  00000+0  00000+0 0  9993", "line2": "2 28899   4.8554  43.6975 0002662 223.7202 299.8824  1.00271557 73675"}}, "geometry": {"type": "Point", "coordinates": [31.76112558769635, -0.9916461955354624]}}, {"type": "Feature", "properties": {"norad_id": 29486, "name": "GPS BIIRM-2 (PRN 31)", "group": "gnss", "lat": -36.2009455870812, "lon": 127.36872942528838, "alt_km": 20226.183404072442, "timestamp": "2025-12-15T10:55:21.383855+00:00", "meta": {"OBJECT_NAME": "GPS BIIRM-2 (PRN 31)", "OBJECT_ID": "2006-042A", "EPOCH": "2025-12-14T18:28:39.630432", "MEAN_MOTION": 2.00554112, "ECCENTRICITY": 0.01073383, "INCLINATION": 54.6944, "RA_OF_ASC_NODE": 158.6601, "ARG_OF_PERICENTER": 52.0063, "MEAN_ANOMALY": 128.102, "EPHEMERIS_TYPE": 0, "CLASSIFICATION_TYPE": "U", "NORAD_CAT_ID": 29486, "ELEMENT_SET_NO": 999, "REV_AT_EPOCH": 14069, "BSTAR": 0, "MEAN_MOTION_DOT": 1e-06, "MEAN_MOTION_DDOT": 0}, "tle": {"line1": "1 29486U 06042A   25348.76990313  .00000100  00000+0  00000+0 0  9990", "line2": "2 29486  54.6944 158.6601 0107338  52.0063 128.1020  2.00554112140692"}}, "geometry": {"type": "Point", "coordinates": [127.36872942528838, -36.2009455870812]}}, {"type": "Feature", "properties": {"norad_id": 29601, "name": "GPS BIIRM-3 (PRN 12)", "group": "gnss", "lat": 9.502365300909208, "lon": -131.96390060794616, "alt_km": 20121.282592214782, "timestamp": "2025-12-15T10:55:21.383867+00:00", "meta": {"OBJECT_NAME": "GPS BIIRM-3 (PRN 12)", "OBJECT_ID": "2006-052A", "EPOCH": "2025-12-11T22:46:47.068032", "MEAN_MOTION": 2.00573524, "ECCENTRICITY": 0.00877389, "INCLINATION": 54.9707, "RA_OF_ASC_NODE": 221.4296, "ARG_OF_PERICENTER": 87.4221, "MEAN_ANOMALY": 273.6564, "EPHEMERIS_TYPE": 0, "CLASSIFICATION_TYPE": "U", "NORAD_CAT_ID": 29601, "ELEMENT_SET_NO": 999, "REV_AT_EPOCH": 13965, "BSTAR": 0, "MEAN_MOTION_DOT": 9e-08, "MEAN_MOTION_DDOT": 0}, "tle": {"line1": "1 29601U 06052A   25345.94915588  .00000009  00000+0  00000+0 0  9996", "line2": "2 29601  54.9707 221.4296 0087738  87.4221 273.6564  2.00573524139650"}}, "geometry": {"type": "Point", "coordinates": [-131.96390060794616, 9.502365300909208]}}]}